NORAD_CAT_ID,OBJECT_NAME,OBJECT_TYPE,EPOCH,MEAN_MOTION,ECCENTRICITY,INCLINATION,RA_OF_ASC_NODE,ARG_OF_PERICENTER,MEAN_ANOMALY,BSTAR,MEAN_MOTION_DOT,MEAN_MOTION_DDOT,TLE_LINE0,TLE_LINE1,TLE_LINE2,SEMIMAJOR_AXIS,PERIOD,APOGEE,PERIGEE,DECAYED
52866.0,STARLINK-4272,PAYLOAD,2022-08-17 14:00:01,15.49898236,0.0002070999999999,53.2147,103.859,71.4527,38.2199,0.00077369,0.00043727,0.0,0 STARLINK-4272,1 52866U 22062AN  22229.58334491  .00043727  00000-0  77369-3 0  9991,2 52866  53.2147 103.8590 0002071  71.4527  38.2199 15.49898236  1304,6795.16,92.909,418.4330000000001,415.61800000000005,0.0
52866.0,STARLINK-4272,PAYLOAD,2022-08-18 14:00:01,15.49871886,0.0001783,53.2147,99.0793,71.5673,220.9981,0.00090041,0.00050962,0.0,0 STARLINK-4272,1 52866U 22062AN  22230.58334491  .00050962  00000-0  90041-3 0  9994,2 52866  53.2147  99.0793 0001783  71.5673 220.9981 15.49871886  1308,6795.238,92.911,418.314,415.891,0.0
52866.0,STARLINK-4272,PAYLOAD,2022-08-18 22:00:00,15.49904335,0.0001872,53.2149,97.4881,65.4153,288.0701,-7.5151e-05,-4.718e-05,0.0,0 STARLINK-4272,1 52866U 22062AN  22230.91667824 -.00004718  00000-0 -75151-4 0  9996,2 52866  53.2149  97.4881 0001872  65.4153 288.0701 15.49904335  1305,6795.143,92.909,418.28,415.736,0.0
52866.0,STARLINK-4272,PAYLOAD,2022-08-19 14:00:01,15.4984844,0.0001561999999999,53.2155,94.3,68.7359,46.6089,0.00077357,0.00043641,0.0,0 STARLINK-4272,1 52866U 22062AN  22231.58334491  .00043641  00000-0  77357-3 0  9996,2 52866  53.2155  94.3000 0001562  68.7359  46.6089 15.49848440  1302,6795.306,92.912,418.232,416.11,0.0
52866.0,STARLINK-4272,PAYLOAD,2022-08-19 16:00:00,15.49869459,0.0001584,53.2156,93.9021,68.7912,151.7677,0.00024224,0.00013313,0.0,0 STARLINK-4272,1 52866U 22062AN  22231.66667824  .00013313  00000-0  24224-3 0  9992,2 52866  53.2156  93.9021 0001584  68.7912 151.7677 15.49869459 10427,6795.245,92.911,418.186,416.033,0.0
52866.0,STARLINK-4272,PAYLOAD,2022-08-19 22:00:00,15.49861034,0.000169,53.2161,92.7118,60.2819,115.9426,0.00019182,0.00010441,0.0,0 STARLINK-4272,1 52866U 22062AN  22231.91667824  .00010441  00000-0  19182-3 0  9996,2 52866  53.2161  92.7118 0001690  60.2819 115.9426 15.49861034  1300,6795.269,92.912,418.283,415.986,0.0
52866.0,STARLINK-4272,PAYLOAD,2022-08-20 08:00:01,15.49856881,0.0001237,53.2172,90.7249,60.1226,282.2252,-0.0095258,-0.00506987,0.0,0 STARLINK-4272,1 52866U 22062AN  22232.33334491 -.00506987  00000-0 -95258-2 0  9998,2 52866  53.2172  90.7249 0001237  60.1226 282.2252 15.49856881 10526,6795.281,92.912,417.987,416.306,0.0
52866.0,STARLINK-4272,PAYLOAD,2022-08-20 14:00:01,15.49775504,0.000117,53.2176,89.5323,63.2915,234.5515,-0.020365,-0.01046609,0.0,0 STARLINK-4272,1 52866U 22062AN  22232.58334491 -.01046609  00000-0 -20365-1 0  9992,2 52866  53.2176  89.5323 0001170  63.2915 234.5515 15.49775504  1304,6795.519,92.917,418.179,416.589,0.0
52866.0,STARLINK-4272,PAYLOAD,2022-08-20 22:00:00,15.4902435,0.0001416999999999,53.2176,87.9449,45.5883,312.5755,-0.021246,-0.01061712,0.0,0 STARLINK-4272,1 52866U 22062AN  22232.91667824 -.01061712  00000-0 -21246-1 0  9999,2 52866  53.2176  87.9449 0001417  45.5883 312.5755 15.49024350  1305,6797.715999999999,92.962,420.544,418.61800000000005,0.0
52866.0,STARLINK-4272,PAYLOAD,2022-08-21 06:00:00,15.4826329,0.0001262999999999,53.2174,86.3557,54.2057,3.3709,-0.021763,-0.01058945,0.0,0 STARLINK-4272,1 52866U 22062AN  22233.25001157 -.01058945  00000-0 -21763-1 0  9996,2 52866  53.2174  86.3557 0001263  54.2057   3.3709 15.48263290 10665,6799.943,93.007,422.667,420.95,0.0
52866.0,STARLINK-4272,PAYLOAD,2022-08-21 14:00:01,15.47502594,0.000148,53.2177,84.7683,50.724,65.3521,-0.022289,-0.01056282,0.0,0 STARLINK-4272,1 52866U 22062AN  22233.58334491 -.01056282  00000-0 -22289-1 0  9998,2 52866  53.2177  84.7683 0001480  50.7240  65.3521 15.47502594  1309,6802.172,93.053,425.043,423.03,0.0
52866.0,STARLINK-4272,PAYLOAD,2022-08-21 22:00:00,15.46743672,0.0001599,53.2175,83.1858,50.5378,123.1232,-0.022909,-0.0105721,0.0,0 STARLINK-4272,1 52866U 22062AN  22233.91667824 -.01057210  00000-0 -22909-1 0  9995,2 52866  53.2175  83.1858 0001599  50.5378 123.1232 15.46743672  1300,6804.396,93.099,427.349,425.173,0.0
52866.0,STARLINK-4272,PAYLOAD,2022-08-22 06:00:00,15.45986003,0.0001379,53.2174,81.602,62.0748,168.2601,-0.023605,-0.01060625,0.0,0 STARLINK-4272,1 52866U 22062AN  22234.25001157 -.01060625  00000-0 -23605-1 0  9992,2 52866  53.2174  81.6020 0001379  62.0748 168.2601 15.45986003 10821,6806.619000000002,93.144,429.423,427.546,0.0
52866.0,STARLINK-4272,PAYLOAD,2022-08-22 12:00:00,15.45414963,0.0001440999999999,53.2173,80.4151,59.1705,123.0716,-0.024024,-0.01058575,0.0,0 STARLINK-4272,1 52866U 22062AN  22234.50001157 -.01058575  00000-0 -24024-1 0  9997,2 52866  53.2173  80.4151 0001441  59.1705 123.0716 15.45414963  1302,6808.295999999999,93.179,431.142,429.18,0.0
52866.0,STARLINK-4272,PAYLOAD,2022-08-22 22:00:00,15.44466561,0.0001368,53.2174,78.4431,50.3855,290.5576,-0.024838,-0.01059238,0.0,0 STARLINK-4272,1 52866U 22062AN  22234.91667824 -.01059238  00000-0 -24838-1 0  9991,2 52866  53.2174  78.4431 0001368  50.3855 290.5576 15.44466561  1302,6811.083000000001,93.236,433.88,432.016,0.0
52866.0,STARLINK-4272,PAYLOAD,2022-08-23 06:00:00,15.43706272,0.0001247,53.2174,76.8646,53.7071,341.1728,-0.02546,-0.01058002,0.0,0 STARLINK-4272,1 52866U 22062AN  22235.25001157 -.01058002  00000-0 -25460-1 0  9990,2 52866  53.2174  76.8646 0001247  53.7071 341.1728 15.43706272 10975,6813.319,93.282,436.034,434.334,0.0
52866.0,STARLINK-4272,PAYLOAD,2022-08-23 14:00:01,15.42944798,0.0001369,53.2175,75.2883,55.8143,32.0894,-0.026022,-0.01054143,0.0,0 STARLINK-4272,1 52866U 22062AN  22235.58334491 -.01054143  00000-0 -26022-1 0  9993,2 52866  53.2175  75.2883 0001369  55.8143  32.0894 15.42944798  1303,6815.561,93.328,438.359,436.49300000000005,0.0
52866.0,STARLINK-4272,PAYLOAD,2022-08-23 22:00:01,15.4218609,0.0001575999999999,53.2175,73.7166,50.4381,89.6386,-0.026732,-0.0107018999999999,0.0,0 STARLINK-4272,1 52866U 22062AN  22235.91668981 -.01070190  00000-0 -26732-1 0  9992,2 52866  53.2175  73.7166 0001576  50.4381  89.6386 15.42186090  1302,6817.795999999999,93.374,440.735,438.586,0.0
52866.0,STARLINK-4272,PAYLOAD,2022-08-24 06:00:00,15.41428091,0.0001412,53.2175,72.1434,62.6126,128.5978,-0.027495,-0.01072782,0.0,0 STARLINK-4272,1 52866U 22062AN  22236.25001157 -.01072782  00000-0 -27495-1 0  9992,2 52866  53.2175  72.1434 0001412  62.6126 128.5978 15.41428091 11135,6820.031,93.42,442.859,440.9330000000001,0.0
52866.0,STARLINK-4272,PAYLOAD,2022-08-24 14:00:01,15.40666856,0.0001415,53.2176,70.5729,62.5423,178.9535,-0.028091,-0.01068833,0.0,0 STARLINK-4272,1 52866U 22062AN  22236.58334491 -.01068833  00000-0 -28091-1 0  9993,2 52866  53.2176  70.5729 0001415  62.5423 178.9535 15.40666856  1305,6822.276999999999,93.466,445.107,443.177,0.0
52866.0,STARLINK-4272,PAYLOAD,2022-08-24 22:00:00,15.399074300000002,0.0001363,53.2176,69.0065,59.3451,231.522,-0.028824,-0.01069312,0.0,0 STARLINK-4272,1 52866U 22062AN  22236.91667824 -.01069312  00000-0 -28824-1 0  9996,2 52866  53.2176  69.0065 0001363  59.3451 231.5220 15.39907430  1309,6824.52,93.512,447.315,445.455,0.0
52866.0,STARLINK-4272,PAYLOAD,2022-08-25 06:00:02,15.39149501,0.0001345,53.2176,67.4385,48.5269,290.8645,-0.029661,-0.01072797,0.0,0 STARLINK-4272,1 52866U 22062AN  22237.25002315 -.01072797  00000-0 -29661-1 0  9993,2 52866  53.2176  67.4385 0001345  48.5269 290.8645 15.39149501 11287,6826.76,93.558,449.543,447.707,0.0
52866.0,STARLINK-4272,PAYLOAD,2022-08-25 14:00:01,15.38388627,0.0001469,53.2177,65.8737,43.6262,343.2483,-0.03031,-0.01069466,0.0,0 STARLINK-4272,1 52866U 22062AN  22237.58334491 -.01069466  00000-0 -30310-1 0  9994,2 52866  53.2177  65.8737 0001469  43.6262 343.2483 15.38388627  1305,6829.011,93.604,451.879,449.87300000000016,0.0
52866.0,STARLINK-4272,PAYLOAD,2022-08-25 22:00:00,15.37628347,0.0001486,53.2176,64.3126,47.5335,25.9747,-0.031052,-0.0106876,0.0,0 STARLINK-4272,1 52866U 22062AN  22237.91667824 -.01068760  00000-0 -31052-1 0  9990,2 52866  53.2176  64.3126 0001486  47.5335  25.9747 15.37628347  1305,6831.262,93.651,454.142,452.112,0.0
52866.0,STARLINK-4272,PAYLOAD,2022-08-26 06:00:00,15.36868562,0.0001646,53.2176,62.7499,42.4549,76.7759,-0.031803,-0.01067942,0.0,0 STARLINK-4272,1 52866U 22062AN  22238.25001157 -.01067942  00000-0 -31803-1 0  9994,2 52866  53.2176  62.7499 0001646  42.4549  76.7759 15.36868562 11435,6833.513000000001,93.697,456.503,454.253,0.0
52866.0,STARLINK-4272,PAYLOAD,2022-08-26 14:00:01,15.36108275,0.0001714,53.2179,61.1906,44.9118,119.1921,-0.032543,-0.0106632999999999,0.0,0 STARLINK-4272,1 52866U 22062AN  22238.58335648 -.01066330  00000-0 -32543-1 0  9997,2 52866  53.2179  61.1906 0001714  44.9118 119.1921 15.36108275  1305,6835.768,93.743,458.804,456.461,0.0
52866.0,STARLINK-4272,PAYLOAD,2022-08-26 22:00:00,15.35347221,0.0001488,53.2176,59.6349,60.6052,147.3305,-0.033255,-0.01063422,0.0,0 STARLINK-4272,1 52866U 22062AN  22238.91667824 -.01063422  00000-0 -33255-1 0  9998,2 52866  53.2176  59.6349 0001488  60.6052 147.3305 15.35347221  1309,6838.026,93.79,460.909,458.874,0.0
52866.0,STARLINK-4272,PAYLOAD,2022-08-27 14:00:01,15.33830913,0.0001443,53.2177,56.5238,52.0667,240.9233,-0.0350529999999999,-0.01067408,0.0,0 STARLINK-4272,1 52866U 22062AN  22239.58334491 -.01067408  00000-0 -35053-1 0  9999,2 52866  53.2177  56.5238 0001443  52.0667 240.9233 15.33830913  1304,6842.531999999997,93.883,465.385,463.41,0.0
52866.0,STARLINK-4272,PAYLOAD,2022-08-27 22:00:00,15.33070018,0.0001278,53.2175,54.9733,60.7644,273.3835,-0.035832,-0.01065199,0.0,0 STARLINK-4272,1 52866U 22062AN  22239.91667824 -.01065199  00000-0 -35832-1 0  9995,2 52866  53.2175  54.9733 0001278  60.7644 273.3835 15.33070018 11694,6844.795999999999,93.929,467.536,465.786,0.0
